{
  "type": "FeatureCollection",
  "features": [
    {
      "type": "Feature",
      "properties": {
        "norad_id": 43783,
        "name": "KAZSTSAT",
        "group": "resource",
        "lat": -0.059838197266473506,
        "lon": 29.46387364764735,
        "alt_km": 570.1453970543862,
        "timestamp": "2025-12-20T14:38:01.616209+00:00",
        "meta_object_name": "KAZSTSAT",
        "meta_object_id": "2018-099AB",
        "meta_epoch": "2025-12-20T01:49:14.152800",
        "meta_mean_motion": 14.99364143,
        "meta_eccentricity": 0.00059799,
        "meta_inclination": 97.4531,
        "meta_ra_of_asc_node": 28.9452,
        "meta_arg_of_pericenter": 297.2395,
        "meta_mean_anomaly": 62.8219,
        "meta_ephemeris_type": 0,
        "meta_classification_type": "U",
        "meta_norad_cat_id": 43783,
        "meta_element_set_no": 999,
        "meta_rev_at_epoch": 38446,
        "meta_bstar": 1.993551e-05,
        "meta_mean_motion_dot": 1.88e-06,
        "meta_mean_motion_ddot": 0,
        "tle_line1": "1 43783U 18099AB  25354.07585825  .00000188  00000+0  19936-4 0  9999",
        "tle_line2": "2 43783  97.4531  28.9452 0005979 297.2395  62.8219 14.99364143384460"
      },
      "geometry": {
        "type": "Point",
        "coordinates": [
          29.46387364764735,
          -0.059838197266473506
        ]
      }
    },
    {
      "type": "Feature",
      "properties": {
        "norad_id": 43831,
        "name": "SAUDISAT 5A",
        "group": "resource",
        "lat": 75.94020187773395,
        "lon": 23.696659108059634,
        "alt_km": 474.3296309122052,
        "timestamp": "2025-12-20T14:38:01.616219+00:00",
        "meta_object_name": "SAUDISAT 5A",
        "meta_object_id": "2018-102A",
        "meta_epoch": "2025-12-20T06:25:26.142816",
        "meta_mean_motion": 15.25742934,
        "meta_eccentricity": 0.00114241,
        "meta_inclination": 97.3346,
        "meta_ra_of_asc_node": 54.3138,
        "meta_arg_of_pericenter": 53.0847,
        "meta_mean_anomaly": 307.1436,
        "meta_ephemeris_type": 0,
        "meta_classification_type": "U",
        "meta_norad_cat_id": 43831,
        "meta_element_set_no": 999,
        "meta_rev_at_epoch": 38837,
        "meta_bstar": 0.00017172783,
        "meta_mean_motion_dot": 4.317e-05,
        "meta_mean_motion_ddot": 0,
        "tle_line1": "1 43831U 18102A   25354.26766369  .00004317  00000+0  17173-3 0  9991",
        "tle_line2": "2 43831  97.3346  54.3138 0011424  53.0847 307.1436 15.25742934388371"
      },
      "geometry": {
        "type": "Point",
        "coordinates": [
          23.696659108059634,
          75.94020187773395
        ]
      }
    },
    {
      "type": "Feature",
      "properties": {
        "norad_id": 43833,
        "name": "SAUDISAT 5B",
        "group": "resource",
        "lat": 39.28148202200856,
        "lon": -116.54239304060042,
        "alt_km": 484.02442079213324,
        "timestamp": "2025-12-20T14:38:01.616229+00:00",
        "meta_object_name": "SAUDISAT 5B",
        "meta_object_id": "2018-102C",
        "meta_epoch": "2025-12-20T06:09:14.853024",
        "meta_mean_motion": 15.26091839,
        "meta_eccentricity": 0.00121509,
        "meta_inclination": 97.344,
        "meta_ra_of_asc_node": 57.0548,
        "meta_arg_of_pericenter": 55.2386,
        "meta_mean_anomaly": 304.9995,
        "meta_ephemeris_type": 0,
        "meta_classification_type": "U",
        "meta_norad_cat_id": 43833,
        "meta_element_set_no": 999,
        "meta_rev_at_epoch": 38848,
        "meta_bstar": 0.00016709132,
        "meta_mean_motion_dot": 4.244e-05,
        "meta_mean_motion_ddot": 0,
        "tle_line1": "1 43833U 18102C   25354.25642191  .00004244  00000+0  16709-3 0  9991",
        "tle_line2": "2 43833  97.3440  57.0548 0012150  55.2386 304.9995 15.26091839388481"
      },
      "geometry": {
        "type": "Point",
        "coordinates": [
          -116.54239304060042,
          39.28148202200856
        ]
      }
    },
    {
      "type": "Feature",
      "properties": {
        "norad_id": 44622,
        "name": "GAOFEN-10R",
        "group": "resource",
        "lat": -58.97304674921117,
        "lon": -44.28141110342169,
        "alt_km": 626.584567693305,
        "timestamp": "2025-12-20T14:38:01.616240+00:00",
        "meta_object_name": "GAOFEN-10R",
        "meta_object_id": "2019-066A",
        "meta_epoch": "2025-12-20T06:48:20.733984",
        "meta_mean_motion": 14.82815683,
        "meta_eccentricity": 0.00073726,
        "meta_inclination": 98.0288,
        "meta_ra_of_asc_node": 301.8195,
        "meta_arg_of_pericenter": 20.1557,
        "meta_mean_anomaly": 339.9946,
        "meta_ephemeris_type": 0,
        "meta_classification_type": "U",
        "meta_norad_cat_id": 44622,
        "meta_element_set_no": 999,
        "meta_rev_at_epoch": 33586,
        "meta_bstar": 0.00014527873,
        "meta_mean_motion_dot": 1.121e-05,
        "meta_mean_motion_ddot": 0,
        "tle_line1": "1 44622U 19066A   25354.28357331  .00001121  00000+0  14528-3 0  9998",
        "tle_line2": "2 44622  98.0288 301.8195 0007372  20.1557 339.9946 14.82815683335865"
      },
      "geometry": {
        "type": "Point",
        "coordinates": [
          -44.28141110342169,
          -58.97304674921117
        ]
      }
    },
    {
      "type": "Feature",
      "properties": {
        "norad_id": 44804,
        "name": "CARTOSAT-3",
        "group": "resource",
        "lat": 51.694376385271205,
        "lon": 44.54768588628992,
        "alt_km": 493.9376076408762,
        "timestamp": "2025-12-20T14:38:01.616250+00:00",
        "meta_object_name": "CARTOSAT-3",
        "meta_object_id": "2019-081A",
        "meta_epoch": "2025-12-20T06:30:03.353760",
        "meta_mean_motion": 15.19208798,
        "meta_eccentricity": 0.00139339,
        "meta_inclination": 97.458,
        "meta_ra_of_asc_node": 53.7591,
        "meta_arg_of_pericenter": 59.7452,
        "meta_mean_anomaly": 300.516,
        "meta_ephemeris_type": 0,
        "meta_classification_type": "U",
        "meta_norad_cat_id": 44804,
        "meta_element_set_no": 999,
        "meta_rev_at_epoch": 33630,
        "meta_bstar": 6.3343509e-05,
        "meta_mean_motion_dot": 1.267e-05,
        "meta_mean_motion_ddot": 0,
        "tle_line1": "1 44804U 19081A   25354.27087215  .00001267  00000+0  63344-4 0  9999",
        "tle_line2": "2 44804  97.4580  53.7591 0013933  59.7452 300.5160 15.19208798336306"
      },
      "geometry": {
        "type": "Point",
        "coordinates": [
          44.54768588628992,
          51.694376385271205
        ]
      }
    },
    {
      "type": "Feature",
      "properties": {
        "norad_id": 44819,
        "name": "GAOFEN-12 01",
        "group": "resource",
        "lat": 33.13342409179048,
        "lon": -174.1742965968496,
        "alt_km": 624.3745579464585,
        "timestamp": "2025-12-20T14:38:01.616261+00:00",
        "meta_object_name": "GAOFEN-12 01",
        "meta_object_id": "2019-082A",
        "meta_epoch": "2025-12-20T07:29:13.368192",
        "meta_mean_motion": 14.80665568,
        "meta_eccentricity": 0.00018133,
        "meta_inclination": 97.8124,
        "meta_ra_of_asc_node": 0.3942,
        "meta_arg_of_pericenter": 195.572,
        "meta_mean_anomaly": 164.5437,
        "meta_ephemeris_type": 0,
        "meta_classification_type": "U",
        "meta_norad_cat_id": 44819,
        "meta_element_set_no": 999,
        "meta_rev_at_epoch": 32762,
        "meta_bstar": 5.1850572e-05,
        "meta_mean_motion_dot": 3.48e-06,
        "meta_mean_motion_ddot": 0,
        "tle_line1": "1 44819U 19082A   25354.31196028  .00000348  00000+0  51851-4 0  9993",
        "tle_line2": "2 44819  97.8124   0.3942 0001813 195.5720 164.5437 14.80665568327628"
      },
      "geometry": {
        "type": "Point",
        "coordinates": [
          -174.1742965968496,
          33.13342409179048
        ]
      }
    },
    {
      "type": "Feature",
      "properties": {
        "norad_id": 44873,
        "name": "CSG-1",
        "group": "resource",
        "lat": -59.511602287127396,
        "lon": -170.578922262645,
        "alt_km": 630.5409504959362,
        "timestamp": "2025-12-20T14:38:01.616270+00:00",
        "meta_object_name": "CSG-1",
        "meta_object_id": "2019-092A",
        "meta_epoch": "2025-12-20T06:48:17.495712",
        "meta_mean_motion": 14.82149755,
        "meta_eccentricity": 0.00014807,
        "meta_inclination": 97.8803,
        "meta_ra_of_asc_node": 175.494,
        "meta_arg_of_pericenter": 86.0364,
        "meta_mean_anomaly": 274.1018,
        "meta_ephemeris_type": 0,
        "meta_classification_type": "U",
        "meta_norad_cat_id": 44873,
        "meta_element_set_no": 999,
        "meta_rev_at_epoch": 32497,
        "meta_bstar": 5.913949e-05,
        "meta_mean_motion_dot": 4.19e-06,
        "meta_mean_motion_ddot": 0,
        "tle_line1": "1 44873U 19092A   25354.28353583  .00000419  00000+0  59139-4 0  9997",
        "tle_line2": "2 44873  97.8803 175.4940 0001480  86.0364 274.1018 14.82149755324977"
      },
      "geometry": {
        "type": "Point",
        "coordinates": [
          -170.578922262645,
          -59.511602287127396
        ]
      }
    }
  ]
}